SL-8 R/B                
1 19257U 88053B   26067.62430779  .00000342  00000+0  11922-3 0  9993
2 19257  74.0462 114.4304 0021401 293.8475 182.5791 14.38915235976446
COSMOS 1975             
1 19573U 88093A   26067.61158049  .00010542  00000+0  38331-3 0  9990
2 19573  82.5181 118.7674 0012038 167.1429 193.0119 15.28054283 19248
SL-14 R/B               
1 19574U 88093B   26067.98834747  .00000775  00000+0  86312-4 0  9997
2 19574  82.5305  42.7020 0021813  43.6768  15.3963 14.85655601   913
SL-16 R/B               
1 19650U 88102B   26067.63350137  .00000302  00000+0  17681-3 0  9999
2 19650  71.0000 153.7196 0013888   3.3231 356.7981 14.16151420926745
INTERCOSMOS 24          
1 20261U 89080A   26067.53167381  .00000973  00000+0  28986-3 0  9995
2 20261  82.6028 105.1585 1186712 295.5108  52.7949 12.59556211666652
SL-14 R/B               
1 20262U 89080C   26067.75562965  .00000817  00000+0  24191-3 0  9998
2 20262  82.5974 173.7856 1230540 186.8838 171.3891 12.50492498660032
DELTA 1 R/B             
1 20323U 89089B   26067.58619538  .00000460  00000+0  12209-3 0  9996
2 20323  97.0706 275.2004 0070409 125.4161 235.3640 14.50662106895579
ARIANE 40 R/B           
1 20443U 90005H   26067.77116415  .00000374  00000+0  13243-3 0  9999
2 20443  98.3085 128.4600 0009792 201.3065 158.7717 14.39869962892678
DELTA 2 R/B(1)          
1 20453U 90008B   26067.41212624  .00091801  00000+0  10759-2 0  9996
2 20453  35.6042 183.2376 0085677 246.9553 112.2130 15.55817429925938
COSMOS 2058             
1 20465U 90010A   26067.91984270  .00005768  00000+0  34048-3 0  9995
2 20465  82.4670  48.1864 0009437 346.6633  13.4346 15.11314076942129
SL-14 R/B               
1 20466U 90010B   26067.94498539  .00000526  00000+0  60859-4 0  9994
2 20466  82.4988 268.0886 0018586 304.9683  54.9786 14.83568122928376
SL-14 R/B               
1 20511U 90018B   26067.89460360  .00000702  00000+0  84978-4 0  9992
2 20511  82.5201 223.8327 0017655  94.4652 265.8580 14.82143989922466
HST                     
1 20580U 90037B   26067.05050796  .00011037  00000+0  36739-3 0  9999
2 20580  28.4714  51.1800 0001797 110.1029 249.9760 15.29454135773065
SL-16 R/B               
1 20625U 90046B   26067.91957970 -.00000243  00000+0 -10051-3 0  9992
2 20625  70.9989 299.5324 0016235 300.6945  59.2577 14.15012682848282
COSMOS 2084             
1 20663U 90055A   26067.92498794  .00003629  00000+0  26319-3 0  9992
2 20663  62.7921 338.1864 0017158 189.8210 170.2558 15.05646918936203
SL-6 R/B(2)             
1 20666U 90055D   26067.97308636  .00002834  00000+0  21957-3 0  9995
2 20666  62.7824 256.2874 0024632 346.9013  13.1443 15.03590689938088
SL-8 R/B                
1 20775U 90078B   26067.97085941  .00020132  00000+0  59251-3 0  9991
2 20775  82.9002 251.9572 0362487  16.4230 344.8370 14.89033023809190
